ONEWEB-0228             
1 48780U 21045P   24065.71665385 -.00000064  00000+0 -20481-3 0  9996
2 48780  87.8950  65.0564 0001960  84.4361 275.6993 13.15549471135879
